NOAA 1 [-]              
1 04793U 70106A   19092.85539380 -.00000042  00000-0  16087-4 0  9992
2 04793 101.7104 162.3902 0032058  75.3858  37.8932 12.53988847210736
NOAA 2 (ITOS-D) [-]     
1 06235U 72082A   19092.89537285 -.00000029  00000-0  10387-3 0  9997
2 06235 101.7867  59.9432 0004050 157.7814 256.7133 12.53112273125228
NOAA 3 [-]              
1 06920U 73086A   19092.93458056 -.00000054  00000-0 -67606-4 0  9992
2 06920 102.0431  62.8314 0006259 299.2076 127.1308 12.40345144 55540
NOAA 4 [-]              
1 07529U 74089A   19092.88727580 -.00000040  00000-0  29489-4 0  9998
2 07529 101.7443  61.3921 0008634 192.1949 222.5135 12.53126457 29796
NOAA 5 [-]              
1 09057U 76077A   19092.92147678 -.00000057  00000-0 -97803-4 0  9998
2 09057 101.9240  65.9647 0009977 147.1558 274.9815 12.37755197928787
TIROS N [P]             
1 11060U 78096A   19092.77161005  .00000009  00000-0  25953-4 0  9993
2 11060  98.7998 150.8044 0009489 267.5845  92.4244 14.18227999305521
NOAA 6 [P]              
1 11416U 79057A   19092.91331871  .00000009  00000-0  19226-4 0  9998
2 11416  98.6349  87.1849 0011410 112.2554 247.9842 14.33523151 73664
NOAA 7 [-]              
1 12553U 81059A   19092.97205733 -.00000017  00000-0  14657-4 0  9992
2 12553  99.0980  98.5297 0011167 195.5301 216.6129 14.17256066951856
NOAA 8 [-]              
1 13923U 83022A   19092.92233774 -.00000000  00000-0  17138-4 0  9996
2 13923  98.5770  79.5035 0016059  44.0134 316.2324 14.28669048875124
NOAA 9 [P]              
1 15427U 84123A   19092.84939140 -.00000012  00000-0  16759-4 0  9992
2 15427  98.8845  41.9510 0013796 253.1560 164.4304 14.16063435770796
NOAA 10 [-]             
1 16969U 86073A   19092.94078942  .00000000  00000-0  17181-4 0  9991
2 16969  98.4776  91.6992 0012772 146.7987 270.4057 14.28066983693629
NOAA 11 [-]             
1 19531U 88089A   19092.94557422 -.00000032  00000-0  44418-5 0  9993
2 19531  98.4577 131.1982 0010361 320.3223  39.7192 14.15238573575111
NOAA 12 [-]             
1 21263U 91032A   19092.93900438 -.00000006  00000-0  15151-4 0  9990
2 21263  98.5218 110.4350 0014016 162.9148 197.2507 14.25888974449774
NOAA 13 [-]             
1 22739U 93050A   19092.68354993 -.00000020  00000-0  11149-4 0  9991
2 22739  98.4796 119.5610 0010753 100.8798 259.3586 14.12726295321609
NOAA 14 [-]             
1 23455U 94089A   19092.87709875 -.00000024  00000-0  95958-5 0  9999
2 23455  98.6051 156.9962 0010596  86.0923 274.1462 14.14127938251124
NOAA 15 [B]             
1 25338U 98030A   19092.93055458  .00000027  00000-0  29829-4 0  9994
2 25338  98.7536 114.3093 0011586 105.2545 254.9916 14.25900284 86055
NOAA 16 [-]             
1 26536U 00055A   19092.90761396 -.00000011  00000-0  17219-4 0  9991
2 26536  98.7812 166.3014 0009457 261.4703  98.5398 14.13225267251876
NOAA 17 [-]             
1 27453U 02032A   19092.87622338 -.00000025  00000-0  73910-5 0  9991
2 27453  98.5290  45.4290 0012880  85.9660 274.2991 14.25035809871998
NOAA 18 [B]             
1 28654U 05018A   19092.91697639  .00000083  00000-0  69779-4 0  9993
2 28654  99.1062 138.6988 0014724  37.5867 322.6331 14.12413092714583
NOAA 19 [+]             
1 33591U 09005A   19092.89527517  .00000061  00000-0  58435-4 0  9996
2 33591  99.1762  82.1765 0013142 231.4635 128.5358 14.12342166522800
SUOMI NPP [+]           
1 37849U 11061A   19092.80959666 -.00000007  00000-0  17290-4 0  9991
2 37849  98.7303  32.0623 0001673  85.8840 300.5794 14.19561182384976
NOAA 20 [+]             
1 43013U 17073A   19092.84021248 -.00000022  00000-0  10382-4 0  9992
2 43013  98.7148  32.1897 0001344 101.8249 258.3078 14.19551485 71001
